{
  "norad_id": 61210,
  "name": "STARLINK-11307 [DTC]",
  "history": [
    {
      "epoch": "2026-05-04T15:41:28.997376Z",
      "apogee_km": 360.5789564377528,
      "perigee_km": 358.86080293343366,
      "latitude_deg": -2.6059887157602563e-07,
      "longitude_deg": 162.82003005368176,
      "height_km": 360.22194145878365,
      "semi_major_axis_km": 6737.8568796855925,
      "eccentricity": 0.0001275,
      "inclination_deg": 53.1589,
      "raan_deg": 260.7309,
      "arg_perigee_deg": 61.3828,
      "mean_anomaly_deg": 298.7318,
      "mean_motion_rev_day": 15.69712401
    },
    {
      "epoch": "2026-05-05T17:40:05.831040Z",
      "apogee_km": 360.5530303526366,
      "perigee_km": 358.84701001912526,
      "latitude_deg": -5.571732493909355e-05,
      "longitude_deg": 126.76597776048563,
      "height_km": 360.40981811395153,
      "semi_major_axis_km": 6737.837020185881,
      "eccentricity": 0.0001266,
      "inclination_deg": 53.1595,
      "raan_deg": 255.3972,
      "arg_perigee_deg": 76.1879,
      "mean_anomaly_deg": 283.9279,
      "mean_motion_rev_day": 15.69719341
    },
    {
      "epoch": "2026-05-06T08:56:57.183648Z",
      "apogee_km": 360.77816932285805,
      "perigee_km": 358.7930425646946,
      "latitude_deg": 4.7305933751598905e-05,
      "longitude_deg": -106.21708267513495,
      "height_km": 360.45477495397085,
      "semi_major_axis_km": 6737.922605943776,
      "eccentricity": 0.00014731,
      "inclination_deg": 53.1592,
      "raan_deg": 252.2556,
      "arg_perigee_deg": 75.7726,
      "mean_anomaly_deg": 284.3456,
      "mean_motion_rev_day": 15.69689433
    },
    {
      "epoch": "2026-05-07T17:02:18.295008Z",
      "apogee_km": 360.43577215404184,
      "perigee_km": 359.05450631549957,
      "latitude_deg": 5.2662206738421065e-05,
      "longitude_deg": 124.54019595396404,
      "height_km": 360.25777202203597,
      "semi_major_axis_km": 6737.882139234771,
      "eccentricity": 0.0001025,
      "inclination_deg": 53.1575,
      "raan_deg": 245.6687,
      "arg_perigee_deg": 54.4949,
      "mean_anomaly_deg": 305.6165,
      "mean_motion_rev_day": 15.69703574
    },
    {
      "epoch": "2026-05-08T17:29:13.333056Z",
      "apogee_km": 360.38906340393896,
      "perigee_km": 358.9390886123829,
      "latitude_deg": 5.716625067201749e-06,
      "longitude_deg": 111.78296350615149,
      "height_km": 360.2894957477494,
      "semi_major_axis_km": 6737.801076008161,
      "eccentricity": 0.0001076,
      "inclination_deg": 53.1601,
      "raan_deg": 240.6449,
      "arg_perigee_deg": 66.5581,
      "mean_anomaly_deg": 293.555,
      "mean_motion_rev_day": 15.69731902
    }
  ]
}